{
  "type": "FeatureCollection",
  "features": [
    {
      "type": "Feature",
      "properties": {
        "norad_id": 41948,
        "name": "CARTOSAT-2D",
        "group": "resource",
        "lat": 33.05463475932483,
        "lon": 45.811889509406576,
        "alt_km": 507.0855268603582,
        "timestamp": "2025-12-19T06:59:43.561545+00:00",
        "meta_object_name": "CARTOSAT-2D",
        "meta_object_id": "2017-008A",
        "meta_epoch": "2025-12-18T22:56:44.245824",
        "meta_mean_motion": 15.1931957,
        "meta_eccentricity": 0.00051854,
        "meta_inclination": 97.4391,
        "meta_ra_of_asc_node": 50.3593,
        "meta_arg_of_pericenter": 143.2834,
        "meta_mean_anomaly": 216.8757,
        "meta_ephemeris_type": 0,
        "meta_classification_type": "U",
        "meta_norad_cat_id": 41948,
        "meta_element_set_no": 999,
        "meta_rev_at_epoch": 49021,
        "meta_bstar": 0.00020878676,
        "meta_mean_motion_dot": 4.342e-05,
        "meta_mean_motion_ddot": 0,
        "tle_line1": "1 41948U 17008A   25352.95606766  .00004342  00000+0  20879-3 0  9995",
        "tle_line2": "2 41948  97.4391  50.3593 0005185 143.2834 216.8757 15.19319570490213"
      },
      "geometry": {
        "type": "Point",
        "coordinates": [
          45.811889509406576,
          33.05463475932483
        ]
      }
    },
    {
      "type": "Feature",
      "properties": {
        "norad_id": 42063,
        "name": "SENTINEL-2B",
        "group": "resource",
        "lat": 70.54281432527188,
        "lon": 40.37446931169013,
        "alt_km": 781.394851344844,
        "timestamp": "2025-12-19T06:59:43.561555+00:00",
        "meta_object_name": "SENTINEL-2B",
        "meta_object_id": "2017-013A",
        "meta_epoch": "2025-12-18T23:56:40.973280",
        "meta_mean_motion": 14.30813508,
        "meta_eccentricity": 0.0001176,
        "meta_inclination": 98.571,
        "meta_ra_of_asc_node": 65.356,
        "meta_arg_of_pericenter": 97.3865,
        "meta_mean_anomaly": 262.7452,
        "meta_ephemeris_type": 0,
        "meta_classification_type": "U",
        "meta_norad_cat_id": 42063,
        "meta_element_set_no": 999,
        "meta_rev_at_epoch": 45887,
        "meta_bstar": 6.1408e-05,
        "meta_mean_motion_dot": 1.17e-06,
        "meta_mean_motion_ddot": 0,
        "tle_line1": "1 42063U 17013A   25352.99769645  .00000117  00000+0  61408-4 0  9990",
        "tle_line2": "2 42063  98.5710  65.3560 0001176  97.3865 262.7452 14.30813508458878"
      },
      "geometry": {
        "type": "Point",
        "coordinates": [
          40.37446931169013,
          70.54281432527188
        ]
      }
    },
    {
      "type": "Feature",
      "properties": {
        "norad_id": 42767,
        "name": "CARTOSAT-2E",
        "group": "resource",
        "lat": -56.37788469258453,
        "lon": 62.151125584052146,
        "alt_km": 515.3662176608404,
        "timestamp": "2025-12-19T06:59:43.561566+00:00",
        "meta_object_name": "CARTOSAT-2E",
        "meta_object_id": "2017-036C",
        "meta_epoch": "2025-12-18T23:20:34.448352",
        "meta_mean_motion": 15.19257487,
        "meta_eccentricity": 0.0002382,
        "meta_inclination": 97.4556,
        "meta_ra_of_asc_node": 50.4784,
        "meta_arg_of_pericenter": 207.6052,
        "meta_mean_anomaly": 152.5057,
        "meta_ephemeris_type": 0,
        "meta_classification_type": "U",
        "meta_norad_cat_id": 42767,
        "meta_element_set_no": 999,
        "meta_rev_at_epoch": 47078,
        "meta_bstar": 0.00018813365,
        "meta_mean_motion_dot": 3.898e-05,
        "meta_mean_motion_ddot": 0,
        "tle_line1": "1 42767U 17036C   25352.97262093  .00003898  00000+0  18813-3 0  9999",
        "tle_line2": "2 42767  97.4556  50.4784 0002382 207.6052 152.5057 15.19257487470789"
      },
      "geometry": {
        "type": "Point",
        "coordinates": [
          62.151125584052146,
          -56.37788469258453
        ]
      }
    },
    {
      "type": "Feature",
      "properties": {
        "norad_id": 42920,
        "name": "FORMOSAT-5",
        "group": "resource",
        "lat": -7.356643227068559,
        "lon": -113.5933396814942,
        "alt_km": 727.2862900654682,
        "timestamp": "2025-12-19T06:59:43.561576+00:00",
        "meta_object_name": "FORMOSAT-5",
        "meta_object_id": "2017-049A",
        "meta_epoch": "2025-12-18T21:51:26.366112",
        "meta_mean_motion": 14.50764159,
        "meta_eccentricity": 0.00098476,
        "meta_inclination": 98.2447,
        "meta_ra_of_asc_node": 67.1063,
        "meta_arg_of_pericenter": 280.6246,
        "meta_mean_anomaly": 79.384,
        "meta_ephemeris_type": 0,
        "meta_classification_type": "U",
        "meta_norad_cat_id": 42920,
        "meta_element_set_no": 999,
        "meta_rev_at_epoch": 44053,
        "meta_bstar": 5.5228878e-05,
        "meta_mean_motion_dot": 1.74e-06,
        "meta_mean_motion_ddot": 0,
        "tle_line1": "1 42920U 17049A   25352.91072183  .00000174  00000+0  55229-4 0  9994",
        "tle_line2": "2 42920  98.2447  67.1063 0009847 280.6246  79.3840 14.50764159440531"
      },
      "geometry": {
        "type": "Point",
        "coordinates": [
          -113.5933396814942,
          -7.356643227068559
        ]
      }
    },
    {
      "type": "Feature",
      "properties": {
        "norad_id": 42969,
        "name": "SENTINEL-5P",
        "group": "resource",
        "lat": -23.896255168476454,
        "lon": 107.89158523429734,
        "alt_km": 832.7346163940038,
        "timestamp": "2025-12-19T06:59:43.561587+00:00",
        "meta_object_name": "SENTINEL-5P",
        "meta_object_id": "2017-064A",
        "meta_epoch": "2025-12-18T19:53:13.522272",
        "meta_mean_motion": 14.19519004,
        "meta_eccentricity": 0.00010133,
        "meta_inclination": 98.7792,
        "meta_ra_of_asc_node": 291.3589,
        "meta_arg_of_pericenter": 90.03,
        "meta_mean_anomaly": 270.0992,
        "meta_ephemeris_type": 0,
        "meta_classification_type": "U",
        "meta_norad_cat_id": 42969,
        "meta_element_set_no": 999,
        "meta_rev_at_epoch": 42397,
        "meta_bstar": 4.0106086e-05,
        "meta_mean_motion_dot": 4e-07,
        "meta_mean_motion_ddot": 0,
        "tle_line1": "1 42969U 17064A   25352.82862873  .00000040  00000+0  40106-4 0  9997",
        "tle_line2": "2 42969  98.7792 291.3589 0001013  90.0300 270.0992 14.19519004423976"
      },
      "geometry": {
        "type": "Point",
        "coordinates": [
          107.89158523429734,
          -23.896255168476454
        ]
      }
    },
    {
      "type": "Feature",
      "properties": {
        "norad_id": 42987,
        "name": "SKYSAT-C11",
        "group": "resource",
        "lat": 81.86429425766349,
        "lon": 16.579308625597683,
        "alt_km": 415.1838785328955,
        "timestamp": "2025-12-19T06:59:43.561597+00:00",
        "meta_object_name": "SKYSAT-C11",
        "meta_object_id": "2017-068A",
        "meta_epoch": "2025-12-18T22:50:06.811872",
        "meta_mean_motion": 15.47702114,
        "meta_eccentricity": 0.00011532,
        "meta_inclination": 97.4142,
        "meta_ra_of_asc_node": 130.598,
        "meta_arg_of_pericenter": 99.6739,
        "meta_mean_anomaly": 260.4642,
        "meta_ephemeris_type": 0,
        "meta_classification_type": "U",
        "meta_norad_cat_id": 42987,
        "meta_element_set_no": 999,
        "meta_rev_at_epoch": 45527,
        "meta_bstar": 0.00036065159,
        "meta_mean_motion_dot": 0.00018579,
        "meta_mean_motion_ddot": 0,
        "tle_line1": "1 42987U 17068A   25352.95146773  .00018579  00000+0  36065-3 0  9993",
        "tle_line2": "2 42987  97.4142 130.5980 0001153  99.6739 260.4642 15.47702114455277"
      },
      "geometry": {
        "type": "Point",
        "coordinates": [
          16.579308625597683,
          81.86429425766349
        ]
      }
    },
    {
      "type": "Feature",
      "properties": {
        "norad_id": 42988,
        "name": "SKYSAT-C10",
        "group": "resource",
        "lat": 9.825634523839303,
        "lon": -54.544900505249984,
        "alt_km": 470.65442814635935,
        "timestamp": "2025-12-19T06:59:43.561608+00:00",
        "meta_object_name": "SKYSAT-C10",
        "meta_object_id": "2017-068B",
        "meta_epoch": "2025-12-18T22:25:10.285248",
        "meta_mean_motion": 15.32190604,
        "meta_eccentricity": 0.00054557,
        "meta_inclination": 97.426,
        "meta_ra_of_asc_node": 123.8024,
        "meta_arg_of_pericenter": 86.4338,
        "meta_mean_anomaly": 273.7528,
        "meta_ephemeris_type": 0,
        "meta_classification_type": "U",
        "meta_norad_cat_id": 42988,
        "meta_element_set_no": 999,
        "meta_rev_at_epoch": 45474,
        "meta_bstar": 0.00029573083,
        "meta_mean_motion_dot": 9.118e-05,
        "meta_mean_motion_ddot": 0,
        "tle_line1": "1 42988U 17068B   25352.93414682  .00009118  00000+0  29573-3 0  9994",
        "tle_line2": "2 42988  97.4260 123.8024 0005455  86.4338 273.7528 15.32190604454741"
      },
      "geometry": {
        "type": "Point",
        "coordinates": [
          -54.544900505249984,
          9.825634523839303
        ]
      }
    }
  ]
}